{
  "links" : {
    "next" : "https://api.nasa.gov/neo/rest/v1/feed?start_date=2016-07-09&end_date=2016-07-09&detailed=true&api_key=t0TVs3DtDT2H8Oy2Zy8m2eVrNsAVKAexjcZXUckd",
    "prev" : "https://api.nasa.gov/neo/rest/v1/feed?start_date=2016-07-07&end_date=2016-07-07&detailed=true&api_key=t0TVs3DtDT2H8Oy2Zy8m2eVrNsAVKAexjcZXUckd",
    "self" : "https://api.nasa.gov/neo/rest/v1/feed?start_date=2016-07-08&end_date=2016-07-08&detailed=true&api_key=t0TVs3DtDT2H8Oy2Zy8m2eVrNsAVKAexjcZXUckd"
  },
  "element_count" : 11,
  "near_earth_objects" : {
    "2016-07-08" : [ {
      "links" : {
        "self" : "https://api.nasa.gov/neo/rest/v1/neo/3147315?api_key=t0TVs3DtDT2H8Oy2Zy8m2eVrNsAVKAexjcZXUckd"
      },
      "neo_reference_id" : "3147315",
      "name" : "(2003 BN4)",
      "nasa_jpl_url" : "http://ssd.jpl.nasa.gov/sbdb.cgi?sstr=3147315",
      "absolute_magnitude_h" : 24.0,
      "estimated_diameter" : {
        "kilometers" : {
          "estimated_diameter_min" : 0.0421264611,
          "estimated_diameter_max" : 0.0941976306
        },
        "meters" : {
          "estimated_diameter_min" : 42.1264610556,
          "estimated_diameter_max" : 94.1976305719
        },
        "miles" : {
          "estimated_diameter_min" : 0.0261761612,
          "estimated_diameter_max" : 0.0585316759
        },
        "feet" : {
          "estimated_diameter_min" : 138.2101784897,
          "estimated_diameter_max" : 309.0473542854
        }
      },
      "is_potentially_hazardous_asteroid" : false,
      "close_approach_data" : [ {
        "close_approach_date" : "2016-07-08",
        "epoch_date_close_approach" : 1467961200000,
        "relative_velocity" : {
          "kilometers_per_second" : "6.8285447354",
          "kilometers_per_hour" : "24582.7610475839",
          "miles_per_hour" : "15274.7717187056"
        },
        "miss_distance" : {
          "astronomical" : "0.4317250576",
          "lunar" : "167.9410400391",
          "kilometers" : "64585148",
          "miles" : "40131352"
        },
        "orbiting_body" : "Earth"
      } ],
      "orbital_data" : {
        "orbit_id" : "23",
        "orbit_determination_date" : "2017-04-06 09:14:24",
        "orbit_uncertainty" : "0",
        "minimum_orbit_intersection" : ".0700824",
        "jupiter_tisserand_invariant" : "5.068",
        "epoch_osculation" : "2458000.5",
        "eccentricity" : ".1709397701603758",
        "semi_major_axis" : "1.269416406161483",
        "inclination" : "5.589897491545761",
        "ascending_node_longitude" : "307.5931578610928",
        "orbital_period" : "522.4017068421587",
        "perihelion_distance" : "1.052422657454428",
        "perihelion_argument" : "193.2657026750948",
        "aphelion_distance" : "1.486410154868537",
        "perihelion_time" : "2457901.649876183739",
        "mean_anomaly" : "68.12007715090819",
        "mean_motion" : ".6891248540824013",
        "equinox" : "J2000"
      }
    }, {
      "links" : {
        "self" : "https://api.nasa.gov/neo/rest/v1/neo/3444479?api_key=t0TVs3DtDT2H8Oy2Zy8m2eVrNsAVKAexjcZXUckd"
      },
      "neo_reference_id" : "3444479",
      "name" : "(2008 YV148)",
      "nasa_jpl_url" : "http://ssd.jpl.nasa.gov/sbdb.cgi?sstr=3444479",
      "absolute_magnitude_h" : 20.6,
      "estimated_diameter" : {
        "kilometers" : {
          "estimated_diameter_min" : 0.2016299194,
          "estimated_diameter_max" : 0.4508582062
        },
        "meters" : {
          "estimated_diameter_min" : 201.6299194428,
          "estimated_diameter_max" : 450.8582061718
        },
        "miles" : {
          "estimated_diameter_min" : 0.1252869847,
          "estimated_diameter_max" : 0.2801502144
        },
        "feet" : {
          "estimated_diameter_min" : 661.5155049046,
          "estimated_diameter_max" : 1479.1936371367
        }
      },
      "is_potentially_hazardous_asteroid" : false,
      "close_approach_data" : [ {
        "close_approach_date" : "2016-07-08",
        "epoch_date_close_approach" : 1467961200000,
        "relative_velocity" : {
          "kilometers_per_second" : "7.0827892219",
          "kilometers_per_hour" : "25498.0411988088",
          "miles_per_hour" : "15843.4912104487"
        },
        "miss_distance" : {
          "astronomical" : "0.3977170978",
          "lunar" : "154.7119445801",
          "kilometers" : "59497632",
          "miles" : "36970112"
        },
        "orbiting_body" : "Earth"
      } ],
      "orbital_data" : {
        "orbit_id" : "18",
        "orbit_determination_date" : "2016-08-03 06:18:24",
        "orbit_uncertainty" : "1",
        "minimum_orbit_intersection" : ".256717",
        "jupiter_tisserand_invariant" : "4.649",
        "epoch_osculation" : "2457600.5",
        "eccentricity" : ".172509575309935",
        "semi_major_axis" : "1.429019386287802",
        "inclination" : "12.60026871193697",
        "ascending_node_longitude" : "101.5345610592399",
        "orbital_period" : "623.9583596555332",
        "perihelion_distance" : "1.18249985884963",
        "perihelion_argument" : "102.9540086468575",
        "aphelion_distance" : "1.675538913725975",
        "perihelion_time" : "2457457.303935740113",
        "mean_anomaly" : "82.61862724624541",
        "mean_motion" : ".5769615783315158",
        "equinox" : "J2000"
      }
    }, {
      "links" : {
        "self" : "https://api.nasa.gov/neo/rest/v1/neo/3766177?api_key=t0TVs3DtDT2H8Oy2Zy8m2eVrNsAVKAexjcZXUckd"
      },
      "neo_reference_id" : "3766177",
      "name" : "(2016 YF8)",
      "nasa_jpl_url" : "http://ssd.jpl.nasa.gov/sbdb.cgi?sstr=3766177",
      "absolute_magnitude_h" : 22.6,
      "estimated_diameter" : {
        "kilometers" : {
          "estimated_diameter_min" : 0.0802703167,
          "estimated_diameter_max" : 0.1794898848
        },
        "meters" : {
          "estimated_diameter_min" : 80.2703167283,
          "estimated_diameter_max" : 179.4898847799
        },
        "miles" : {
          "estimated_diameter_min" : 0.049877647,
          "estimated_diameter_max" : 0.1115298092
        },
        "feet" : {
          "estimated_diameter_min" : 263.3540659348,
          "estimated_diameter_max" : 588.8775935812
        }
      },
      "is_potentially_hazardous_asteroid" : false,
      "close_approach_data" : [ {
        "close_approach_date" : "2016-07-08",
        "epoch_date_close_approach" : 1467961200000,
        "relative_velocity" : {
          "kilometers_per_second" : "4.5976111605",
          "kilometers_per_hour" : "16551.4001777334",
          "miles_per_hour" : "10284.3964048811"
        },
        "miss_distance" : {
          "astronomical" : "0.2849050472",
          "lunar" : "110.8280639648",
          "kilometers" : "42621188",
          "miles" : "26483578"
        },
        "orbiting_body" : "Earth"
      } ],
      "orbital_data" : {
        "orbit_id" : "7",
        "orbit_determination_date" : "2017-04-06 08:21:18",
        "orbit_uncertainty" : "7",
        "minimum_orbit_intersection" : ".0675843",
        "jupiter_tisserand_invariant" : "5.370",
        "epoch_osculation" : "2458000.5",
        "eccentricity" : ".209424653312129",
        "semi_major_axis" : "1.168811334580051",
        "inclination" : "7.783249901951415",
        "ascending_node_longitude" : "217.804870809981",
        "orbital_period" : "461.5460607557621",
        "perihelion_distance" : ".924033426048337",
        "perihelion_argument" : "181.9337241549885",
        "aphelion_distance" : "1.413589243111765",
        "perihelion_time" : "2458162.596993050233",
        "mean_anomaly" : "233.5664271459058",
        "mean_motion" : ".7799871575342129",
        "equinox" : "J2000"
      }
    } ]
  }
}